CCSDS_OMM_VERS = 2.0
CREATION_DATE  = 
ORIGINATOR     = 

OBJECT_NAME    = SL-3 R/B
OBJECT_ID      = 1982-079B
CENTER_NAME    = EARTH
REF_FRAME      = TEME
TIME_SYSTEM    = UTC
MEAN_ELEMENT_THEORY = SGP/SGP4

EPOCH          = 2026-01-01T21:46:19.404192
MEAN_MOTION    = 15.23867226
ECCENTRICITY   = .00264012
INCLINATION    = 81.1476
RA_OF_ASC_NODE = 271.8855
ARG_OF_PERICENTER = 34.3288
MEAN_ANOMALY   = 325.9644

EPHEMERIS_TYPE = 0
CLASSIFICATION_TYPE = U
NORAD_CAT_ID   = 13403
ELEMENT_SET_NO = 999
REV_AT_EPOCH   = 36752
BSTAR          = .40718739E-3
MEAN_MOTION_DOT = .9948E-4
MEAN_MOTION_DDOT = 0

CCSDS_OMM_VERS = 2.0
CREATION_DATE  = 
ORIGINATOR     = 

OBJECT_NAME    = SL-14 R/B
OBJECT_ID      = 1982-092B
CENTER_NAME    = EARTH
REF_FRAME      = TEME
TIME_SYSTEM    = UTC
MEAN_ELEMENT_THEORY = SGP/SGP4

EPOCH          = 2026-01-01T22:50:00.793248
MEAN_MOTION    = 14.86578927
ECCENTRICITY   = .00208213
INCLINATION    = 82.5670
RA_OF_ASC_NODE = 203.8088
ARG_OF_PERICENTER = 158.7436
MEAN_ANOMALY   = 317.4296

EPHEMERIS_TYPE = 0
CLASSIFICATION_TYPE = U
NORAD_CAT_ID   = 13553
ELEMENT_SET_NO = 999
REV_AT_EPOCH   = 31901
BSTAR          = .96527177E-4
MEAN_MOTION_DOT = .883E-5
MEAN_MOTION_DDOT = 0

CCSDS_OMM_VERS = 2.0
CREATION_DATE  = 
ORIGINATOR     = 

OBJECT_NAME    = SL-3 R/B
OBJECT_ID      = 1983-010B
CENTER_NAME    = EARTH
REF_FRAME      = TEME
TIME_SYSTEM    = UTC
MEAN_ELEMENT_THEORY = SGP/SGP4

EPOCH          = 2026-01-01T16:06:38.139264
MEAN_MOTION    = 15.44084767
ECCENTRICITY   = .00163293
INCLINATION    = 81.1050
RA_OF_ASC_NODE = 84.2801
ARG_OF_PERICENTER = 280.0681
MEAN_ANOMALY   = 79.8720

EPHEMERIS_TYPE = 0
CLASSIFICATION_TYPE = U
NORAD_CAT_ID   = 13819
ELEMENT_SET_NO = 999
REV_AT_EPOCH   = 34759
BSTAR          = .50085481E-3
MEAN_MOTION_DOT = .23065E-3
MEAN_MOTION_DDOT = 0

CCSDS_OMM_VERS = 2.0
CREATION_DATE  = 
ORIGINATOR     = 

OBJECT_NAME    = SL-3 R/B
OBJECT_ID      = 1983-075B
CENTER_NAME    = EARTH
REF_FRAME      = TEME
TIME_SYSTEM    = UTC
MEAN_ELEMENT_THEORY = SGP/SGP4

EPOCH          = 2026-01-01T23:28:26.083488
MEAN_MOTION    = 15.36615842
ECCENTRICITY   = .00244599
INCLINATION    = 97.6102
RA_OF_ASC_NODE = 4.1476
ARG_OF_PERICENTER = 106.7726
MEAN_ANOMALY   = 253.6204

EPHEMERIS_TYPE = 0
CLASSIFICATION_TYPE = U
NORAD_CAT_ID   = 14208
ELEMENT_SET_NO = 999
REV_AT_EPOCH   = 31990
BSTAR          = .47079462E-3
MEAN_MOTION_DOT = .1693E-3
MEAN_MOTION_DDOT = 0

CCSDS_OMM_VERS = 2.0
CREATION_DATE  = 
ORIGINATOR     = 

OBJECT_NAME    = COSMOS 1536
OBJECT_ID      = 1984-013A
CENTER_NAME    = EARTH
REF_FRAME      = TEME
TIME_SYSTEM    = UTC
MEAN_ELEMENT_THEORY = SGP/SGP4

EPOCH          = 2026-01-01T21:58:54.152256
MEAN_MOTION    = 15.22810627
ECCENTRICITY   = .00150303
INCLINATION    = 82.5445
RA_OF_ASC_NODE = 174.1511
ARG_OF_PERICENTER = 153.3286
MEAN_ANOMALY   = 206.8727

EPHEMERIS_TYPE = 0
CLASSIFICATION_TYPE = U
NORAD_CAT_ID   = 14699
ELEMENT_SET_NO = 999
REV_AT_EPOCH   = 26245
BSTAR          = .5252828E-3
MEAN_MOTION_DOT = .12356E-3
MEAN_MOTION_DDOT = 0

CCSDS_OMM_VERS = 2.0
CREATION_DATE  = 
ORIGINATOR     = 

OBJECT_NAME    = SL-14 R/B
OBJECT_ID      = 1984-027B
CENTER_NAME    = EARTH
REF_FRAME      = TEME
TIME_SYSTEM    = UTC
MEAN_ELEMENT_THEORY = SGP/SGP4

EPOCH          = 2026-01-01T21:25:30.926784
MEAN_MOTION    = 14.85900288
ECCENTRICITY   = .00175849
INCLINATION    = 82.5429
RA_OF_ASC_NODE = 307.6578
ARG_OF_PERICENTER = 189.8404
MEAN_ANOMALY   = 170.2471

EPHEMERIS_TYPE = 0
CLASSIFICATION_TYPE = U
NORAD_CAT_ID   = 14820
ELEMENT_SET_NO = 999
REV_AT_EPOCH   = 23771
BSTAR          = .10174901E-3
MEAN_MOTION_DOT = .913E-5
MEAN_MOTION_DDOT = 0

CCSDS_OMM_VERS = 2.0
CREATION_DATE  = 
ORIGINATOR     = 

OBJECT_NAME    = SL-8 R/B
OBJECT_ID      = 1985-006B
CENTER_NAME    = EARTH
REF_FRAME      = TEME
TIME_SYSTEM    = UTC
MEAN_ELEMENT_THEORY = SGP/SGP4

EPOCH          = 2026-01-01T19:30:09.314784
MEAN_MOTION    = 14.37736511
ECCENTRICITY   = .00194998
INCLINATION    = 74.0458
RA_OF_ASC_NODE = 24.2023
ARG_OF_PERICENTER = 312.6188
MEAN_ANOMALY   = 220.0879

EPHEMERIS_TYPE = 0
CLASSIFICATION_TYPE = U
NORAD_CAT_ID   = 15483
ELEMENT_SET_NO = 999
REV_AT_EPOCH   = 14441
BSTAR          = .20590192E-3
MEAN_MOTION_DOT = .594E-5
MEAN_MOTION_DDOT = 0

CCSDS_OMM_VERS = 2.0
CREATION_DATE  = 
ORIGINATOR     = 

OBJECT_NAME    = SL-12 R/B(2)
OBJECT_ID      = 1985-042D
CENTER_NAME    = EARTH
REF_FRAME      = TEME
TIME_SYSTEM    = UTC
MEAN_ELEMENT_THEORY = SGP/SGP4

EPOCH          = 2026-01-01T22:36:43.285824
MEAN_MOTION    = 14.21958581
ECCENTRICITY   = .0037036
INCLINATION    = 71.1067
RA_OF_ASC_NODE = 228.7415
ARG_OF_PERICENTER = 231.7766
MEAN_ANOMALY   = 223.2618

EPHEMERIS_TYPE = 0
CLASSIFICATION_TYPE = U
NORAD_CAT_ID   = 15772
ELEMENT_SET_NO = 999
REV_AT_EPOCH   = 10490
BSTAR          = .97381363E-4
MEAN_MOTION_DOT = .169E-5
MEAN_MOTION_DDOT = 0

CCSDS_OMM_VERS = 2.0
CREATION_DATE  = 
ORIGINATOR     = 

OBJECT_NAME    = SL-14 R/B
OBJECT_ID      = 1985-069B
CENTER_NAME    = EARTH
REF_FRAME      = TEME
TIME_SYSTEM    = UTC
MEAN_ELEMENT_THEORY = SGP/SGP4

EPOCH          = 2026-01-01T16:42:03.320064
MEAN_MOTION    = 14.86351219
ECCENTRICITY   = .00200604
INCLINATION    = 82.5271
RA_OF_ASC_NODE = 87.9426
ARG_OF_PERICENTER = 57.0863
MEAN_ANOMALY   = 303.2280

EPHEMERIS_TYPE = 0
CLASSIFICATION_TYPE = U
NORAD_CAT_ID   = 15945
ELEMENT_SET_NO = 999
REV_AT_EPOCH   = 16288
BSTAR          = .10847551E-3
MEAN_MOTION_DOT = .983E-5
MEAN_MOTION_DDOT = 0

CCSDS_OMM_VERS = 2.0
CREATION_DATE  = 
ORIGINATOR     = 

OBJECT_NAME    = SL-16 R/B
OBJECT_ID      = 1985-097B
CENTER_NAME    = EARTH
REF_FRAME      = TEME
TIME_SYSTEM    = UTC
MEAN_ELEMENT_THEORY = SGP/SGP4

EPOCH          = 2026-01-01T23:28:24.059136
MEAN_MOTION    = 14.16587061
ECCENTRICITY   = .00079002
INCLINATION    = 71.0030
RA_OF_ASC_NODE = 280.9969
ARG_OF_PERICENTER = 340.6030
MEAN_ANOMALY   = 96.5230

EPHEMERIS_TYPE = 0
CLASSIFICATION_TYPE = U
NORAD_CAT_ID   = 16182
ELEMENT_SET_NO = 999
REV_AT_EPOCH   = 7778
BSTAR          = .78018919E-4
MEAN_MOTION_DOT = .108E-5
MEAN_MOTION_DDOT = 0

CCSDS_OMM_VERS = 2.0
CREATION_DATE  = 
ORIGINATOR     = 

OBJECT_NAME    = SL-14 R/B
OBJECT_ID      = 1986-006B
CENTER_NAME    = EARTH
REF_FRAME      = TEME
TIME_SYSTEM    = UTC
MEAN_ELEMENT_THEORY = SGP/SGP4

EPOCH          = 2026-01-01T23:01:01.636608
MEAN_MOTION    = 14.86702187
ECCENTRICITY   = .00778208
INCLINATION    = 82.5279
RA_OF_ASC_NODE = 322.5266
ARG_OF_PERICENTER = 133.0675
MEAN_ANOMALY   = 227.7092

EPHEMERIS_TYPE = 0
CLASSIFICATION_TYPE = U
NORAD_CAT_ID   = 16496
ELEMENT_SET_NO = 999
REV_AT_EPOCH   = 13929
BSTAR          = .11747038E-3
MEAN_MOTION_DOT = .1131E-4
MEAN_MOTION_DDOT = 0

CCSDS_OMM_VERS = 2.0
CREATION_DATE  = 
ORIGINATOR     = 

OBJECT_NAME    = COSMOS 1743
OBJECT_ID      = 1986-034A
CENTER_NAME    = EARTH
REF_FRAME      = TEME
TIME_SYSTEM    = UTC
MEAN_ELEMENT_THEORY = SGP/SGP4

EPOCH          = 2026-01-01T21:21:34.726464
MEAN_MOTION    = 15.53487513
ECCENTRICITY   = .00049708
INCLINATION    = 82.5349
RA_OF_ASC_NODE = 143.6432
ARG_OF_PERICENTER = 173.9850
MEAN_ANOMALY   = 186.1464

EPHEMERIS_TYPE = 0
CLASSIFICATION_TYPE = U
NORAD_CAT_ID   = 16719
ELEMENT_SET_NO = 999
REV_AT_EPOCH   = 16986
BSTAR          = .67657875E-3
MEAN_MOTION_DOT = .43134E-3
MEAN_MOTION_DDOT = 0

