SL-3 R/B                
1 13403U 82079B   26001.90716903  .00009948  00000+0  40719-3 0  9994
2 13403  81.1476 271.8855 0026401  34.3288 325.9644 15.23867226367525
SL-14 R/B               
1 13553U 82092B   26001.95139807  .00000883  00000+0  96527-4 0  9990
2 13553  82.5670 203.8088 0020821 158.7436 317.4296 14.86578927319016
SL-3 R/B                
1 13819U 83010B   26001.67127476  .00023065  00000+0  50085-3 0  9999
2 13819  81.1050  84.2801 0016329 280.0681  79.8720 15.44084767347595
SL-3 R/B                
1 14208U 83075B   26001.97807967  .00016930  00000+0  47079-3 0  9998
2 14208  97.6102   4.1476 0024459 106.7726 253.6204 15.36615842319902
COSMOS 1536             
1 14699U 84013A   26001.91590454  .00012356  00000+0  52528-3 0  9992
2 14699  82.5445 174.1511 0015030 153.3286 206.8727 15.22810627262451
SL-14 R/B               
1 14820U 84027B   26001.89271906  .00000913  00000+0  10175-3 0  9996
2 14820  82.5429 307.6578 0017584 189.8404 170.2471 14.85900288237719
SL-8 R/B                
1 15483U 85006B   26001.81260781  .00000594  00000+0  20590-3 0  9998
2 15483  74.0458  24.2023 0019499 312.6188 220.0879 14.37736511144415
SL-12 R/B(2)            
1 15772U 85042D   26001.94216766  .00000169  00000+0  97381-4 0  9998
2 15772  71.1067 228.7415 0037036 231.7766 223.2618 14.21958581104908
SL-14 R/B               
1 15945U 85069B   26001.69587176  .00000983  00000+0  10848-3 0  9993
2 15945  82.5271  87.9426 0020060  57.0863 303.2280 14.86351219162887
SL-16 R/B               
1 16182U 85097B   26001.97805624  .00000108  00000+0  78019-4 0  9994
2 16182  71.0030 280.9969 0007900 340.6030  96.5230 14.16587061 77789
SL-14 R/B               
1 16496U 86006B   26001.95904672  .00001131  00000+0  11747-3 0  9995
2 16496  82.5279 322.5266 0077820 133.0675 227.7092 14.86702187139293
COSMOS 1743             
1 16719U 86034A   26001.88998526  .00043134  00000+0  67658-3 0  9998
2 16719  82.5349 143.6432 0004970 173.9850 186.1464 15.53487513169865
